STARLINK-2446_new
1 17844C 21018BK  21326.17830171 -.00021351  00000-0 -14306-2 0  3265
2 17844  53.0549  92.9364 0001265  78.2262 219.0655 15.06420128    17
STARLINK-2446_old
1 27844C 21018BK  21325.15229950  .00003014  00000-0  20192-3 0  3253
2 27844  53.0549  97.5418 0001278  77.2534  52.8999 15.06398197    17
